H1 CPF 01  gfz 2022 12 02 13  8362 terrasarx 
H2 0702601  6201 31698    2022 12 02 12 59 42 2022 12 07 00 00 42   120 1 1  0 0 0
H9
10 0 59915  79902.000000  0    2872685.291  -6016750.681   1727120.754
10 0 59915  80022.000000  0    2588536.753  -5833952.474   2585062.770
10 0 59915  80142.000000  0    2263270.102  -5543824.530   3397486.044
10 0 59915  80262.000000  0    1904416.731  -5150796.125   4150093.403
10 0 59915  80382.000000  0    1520003.133  -4661241.562   4829652.516
10 0 59915  80502.000000  0    1118374.548  -4083369.406   5424229.683
10 0 59915  80622.000000  0     708015.203  -3427076.334   5923399.383
10 0 59915  80742.000000  0     297369.479  -2703767.843   6318422.007
10 0 59915  80862.000000  0    -105330.396  -1926153.688   6602389.696
10 0 59915  80982.000000  0    -492227.369  -1108021.215   6770340.587
10 0 59915  81102.000000  0    -855991.400   -263989.416   6819341.510
10 0 59915  81222.000000  0   -1189957.256    590753.337   6748536.312
10 0 59915  81342.000000  0   -1488246.162   1440722.298   6559159.513
10 0 59915  81462.000000  0   -1745869.113   2270415.915   6254516.073
10 0 59915  81582.000000  0   -1958810.947   3064598.312   5839927.459
10 0 59915  81702.000000  0   -2124093.270   3808580.210   5322643.750
10 0 59915  81822.000000  0   -2239815.752   4488493.896   4711723.997
10 0 59915  81942.000000  0   -2305175.250   5091558.221   4017883.411
10 0 59915  82062.000000  0   -2320461.507   5606327.060   3253309.295
10 0 59915  82182.000000  0   -2287029.580   6022915.134   2431447.606
10 0 59915  82302.000000  0   -2207249.406   6333196.095   1566765.076
10 0 59915  82422.000000  0   -2084433.200   6530968.574    674490.191
10 0 59915  82542.000000  0   -1922742.550   6612085.224   -229661.538
10 0 59915  82662.000000  0   -1727077.907   6574541.741  -1129772.681
10 0 59915  82782.000000  0   -1502952.480   6418523.025  -2010015.500
10 0 59915  82902.000000  0   -1256353.118   6146400.095  -2854939.991
10 0 59915  83022.000000  0    -993594.189   5762684.030  -3649748.242
10 0 59915  83142.000000  0    -721167.808   5273940.927  -4380554.362
10 0 59915  83262.000000  0    -445593.948   4688667.244  -5034625.011
10 0 59915  83382.000000  0    -173273.407   4017131.027  -5600595.377
10 0 59915  83502.000000  0      89653.170   3271181.939  -6068659.034
10 0 59915  83622.000000  0     337436.733   2464033.778  -6430727.407
10 0 59915  83742.000000  0     564838.640   1610026.471  -6680557.370
10 0 59915  83862.000000  0     767236.078    724372.021  -6813848.965
10 0 59915  83982.000000  0     940711.753   -177113.350  -6828311.467
10 0 59915  84102.000000  0    1082126.725  -1078286.563  -6723698.120
10 0 59915  84222.000000  0    1189175.345  -1962959.529  -6501808.095
10 0 59915  84342.000000  0    1260422.195  -2815181.452  -6166459.132
10 0 59915  84462.000000  0    1295321.054  -3619521.216  -5723431.084
10 0 59915  84582.000000  0    1294213.555  -4361346.501  -5180376.284
10 0 59915  84702.000000  0    1258309.491  -5027090.839  -4546697.272
10 0 59915  84822.000000  0    1189648.273  -5604506.622  -3833395.922
10 0 59915  84942.000000  0    1091041.022  -6082899.606  -3052891.656
10 0 59915  85062.000000  0     965995.460  -6453337.773  -2218811.780
10 0 59915  85182.000000  0     818624.948  -6708830.754  -1345756.754
10 0 59915  85302.000000  0     653542.697  -6844473.886   -449043.279
10 0 59915  85422.000000  0     475743.932  -6857551.773    455569.043
10 0 59915  85542.000000  0     290479.205  -6747599.476   1352161.179
10 0 59915  85662.000000  0     103121.878  -6516419.363   2224943.517
10 0 59915  85782.000000  0     -80966.864  -6168051.604   3058544.093
10 0 59915  85902.000000  0    -256571.894  -5708697.306   3838288.154
10 0 59915  86022.000000  0    -418753.904  -5146599.186   4550460.182
10 0 59915  86142.000000  0    -562971.095  -4491884.745   5182547.510
10 0 59915  86262.000000  0    -685189.841  -3756373.864   5723459.530
10 0 59915  86382.000000  0    -781982.347  -2953355.579   6163720.277
10 0 59916    102.000000  0    -850608.921  -2097338.661   6495628.029
10 0 59916    222.000000  0    -889083.356  -1203785.425   6713382.239
10 0 59916    342.000000  0    -896220.897   -288830.757   6813180.173
10 0 59916    462.000000  0    -871668.226    631010.297   6793279.717
10 0 59916    582.000000  0    -815913.346   1539140.354   6654027.946
10 0 59916    702.000000  0    -730275.628   2419178.612   6397855.322
10 0 59916    822.000000  0    -616876.847   3255256.005   6029235.968
10 0 59916    942.000000  0    -478593.833   4032302.820   5554614.425
10 0 59916   1062.000000  0    -318993.106   4736323.540   4982298.335
10 0 59916   1182.000000  0    -142248.612   5354655.309   4322319.987
10 0 59916   1302.000000  0      46956.291   5876204.247   3586263.434
10 0 59916   1422.000000  0     243539.406   6291651.557   2787066.301
10 0 59916   1542.000000  0     442141.457   6593635.930   1938793.254
10 0 59916   1662.000000  0     637257.675   6776892.001   1056381.319
10 0 59916   1782.000000  0     823373.438   6838347.565    155370.975
10 0 59916   1902.000000  0     995102.139   6777177.851   -748375.520
10 0 59916   2022.000000  0    1147320.154   6594813.995  -1638962.214
10 0 59916   2142.000000  0    1275295.737   6294906.889  -2500746.535
10 0 59916   2262.000000  0    1374809.300   5883247.411  -3318620.312
10 0 59916   2382.000000  0    1442262.210   5367644.637  -4078278.421
10 0 59916   2502.000000  0    1474771.544   4757765.762  -4766469.341
10 0 59916   2622.000000  0    1470248.402   4064942.308  -5371222.114
10 0 59916   2742.000000  0    1427458.096   3301949.681  -5882046.698
10 0 59916   2862.000000  0    1346061.487   2482763.822  -6290106.665
10 0 59916   2982.000000  0    1226636.406   1622300.510  -6588359.867
10 0 59916   3102.000000  0    1070679.995    736144.580  -6771668.939
10 0 59916   3222.000000  0     880591.444   -159729.413  -6836881.348
10 0 59916   3342.000000  0     659635.403  -1049240.207  -6782877.068
10 0 59916   3462.000000  0     411886.619  -1916481.390  -6610584.074
10 0 59916   3582.000000  0     142157.527  -2745997.195  -6322964.296
10 0 59916   3702.000000  0    -144091.970  -3523053.292  -5924970.471
10 0 59916   3822.000000  0    -440860.581  -4233896.672  -5423468.768
10 0 59916   3942.000000  0    -741725.255  -4865999.701  -4827131.476
10 0 59916   4062.000000  0   -1039973.962  -5408286.240  -4146298.765
10 0 59916   4182.000000  0   -1328749.059  -5851334.419  -3392809.553
10 0 59916   4302.000000  0   -1601197.913  -6187551.036  -2579803.458
10 0 59916   4422.000000  0   -1850627.793  -6411313.971  -1721496.786
10 0 59916   4542.000000  0   -2070661.400  -6519078.798   -832934.674
10 0 59916   4662.000000  0   -2255388.960  -6509445.218     70276.142
10 0 59916   4782.000000  0   -2399513.289  -6383180.448    972248.043
10 0 59916   4902.000000  0   -2498483.678  -6143198.790   1857100.361
10 0 59916   5022.000000  0   -2548614.984  -5794497.636   2709248.247
10 0 59916   5142.000000  0   -2547188.483  -5344051.281   3513685.666
10 0 59916   5262.000000  0   -2492531.877  -4800665.729   4256255.867
10 0 59916   5382.000000  0   -2384077.091  -4174799.182   4923903.797
10 0 59916   5502.000000  0   -2222395.284  -3478352.722   5504906.851
10 0 59916   5622.000000  0   -2009206.952  -2724434.573   5989078.872
10 0 59916   5742.000000  0   -1747367.129  -1927106.620   6367943.517
10 0 59916   5862.000000  0   -1440827.053  -1101118.088   6634877.388
10 0 59916   5982.000000  0   -1094573.546   -261628.781   6785219.781
10 0 59916   6102.000000  0    -714547.874    576069.691   6816347.313
10 0 59916   6222.000000  0    -307543.995   1396831.266   6727717.615
10 0 59916   6342.000000  0     118912.944   2185929.047   6520878.507
10 0 59916   6462.000000  0     556705.486   2929319.397   6199442.309
10 0 59916   6582.000000  0     997277.183   3613892.126   5769026.695
10 0 59916   6702.000000  0    1431798.319   4227704.702   5237162.221
10 0 59916   6822.000000  0    1851341.577   4760195.651   4613166.768
10 0 59916   6942.000000  0    2247064.860   5202373.383   3907987.299
10 0 59916   7062.000000  0    2610397.016   5546974.317   3134012.061
10 0 59916   7182.000000  0    2933222.978   5788592.501   2304855.753
10 0 59916   7302.000000  0    3208063.730   5923772.524   1435115.521
10 0 59916   7422.000000  0    3428245.093   5951060.574    540108.055
10 0 59916   7542.000000  0    3588051.915   5871016.819   -364407.195
10 0 59916   7662.000000  0    3682864.765   5686186.423  -1262514.131
10 0 59916   7782.000000  0    3709274.229   5401030.740  -2138427.932
10 0 59916   7902.000000  0    3665170.978   5021820.770  -2976779.920
10 0 59916   8022.000000  0    3549808.292   4556494.841  -3762892.508
10 0 59916   8142.000000  0    3363835.875   4014485.205  -4483037.225
10 0 59916   8262.000000  0    3109305.957   3406520.163  -5124671.761
10 0 59916   8382.000000  0    2789651.089   2744404.913  -5676653.056
10 0 59916   8502.000000  0    2409635.135   2040786.787  -6129421.655
10 0 59916   8622.000000  0    1975278.428   1308910.858  -6475156.436
10 0 59916   8742.000000  0    1493760.083    562370.783  -6707897.269
10 0 59916   8862.000000  0     973299.566   -185139.960  -6823637.984
10 0 59916   8982.000000  0     423016.652   -920074.823  -6820388.753
10 0 59916   9102.000000  0    -147225.746  -1629273.925  -6698204.698
10 0 59916   9222.000000  0    -726993.209  -2300192.591  -6459184.977
10 0 59916   9342.000000  0   -1305466.167  -2921118.971  -6107442.161
10 0 59916   9462.000000  0   -1871636.966  -3481376.477  -5649038.295
10 0 59916   9582.000000  0   -2414514.729  -3971507.250  -5091891.185
10 0 59916   9702.000000  0   -2923336.843  -4383436.228  -4445650.187
10 0 59916   9822.000000  0   -3387782.633  -4710610.749  -3721539.350
10 0 59916   9942.000000  0   -3798183.586  -4948112.103  -2932171.299
99
